[{"OBJECT_NAME":"STARLINK-3208","OBJECT_ID":"2021-115AX","EPOCH":"2026-03-09T11:07:31.459584","MEAN_MOTION":15.08853989,"ECCENTRICITY":0.00015293,"INCLINATION":53.2177,"RA_OF_ASC_NODE":140.1838,"ARG_OF_PERICENTER":90.6342,"MEAN_ANOMALY":269.4826,"EPHEMERIS_TYPE":0,"CLASSIFICATION_TYPE":"U","NORAD_CAT_ID":49769,"ELEMENT_SET_NO":999,"REV_AT_EPOCH":23564,"BSTAR":6.2679364e-5,"MEAN_MOTION_DOT":7.1e-6,"MEAN_MOTION_DDOT":0},{"OBJECT_NAME":"CZ-4C DEB","OBJECT_ID":"2018-031H","EPOCH":"2026-03-09T10:10:58.582560","MEAN_MOTION":15.14033759,"ECCENTRICITY":0.00199639,"INCLINATION":98.1663,"RA_OF_ASC_NODE":242.9335,"ARG_OF_PERICENTER":272.748,"MEAN_ANOMALY":87.1465,"EPHEMERIS_TYPE":0,"CLASSIFICATION_TYPE":"U","NORAD_CAT_ID":43266,"ELEMENT_SET_NO":999,"REV_AT_EPOCH":43166,"BSTAR":0.00079064643,"MEAN_MOTION_DOT":0.00014379,"MEAN_MOTION_DDOT":0}]
